1 41549U 16030A   18271.84509202 +.00000006 +00000-0 +00000-0 0  9998
2 41549 056.7961 299.1231 0004216 266.5739 093.4296 01.70474719014623
